CCSDS_OMM_VERS = 2.0
CREATION_DATE  = 
ORIGINATOR     = 

OBJECT_NAME    = STARLINK-36040
OBJECT_ID      = 2025-270AC
CENTER_NAME    = EARTH
REF_FRAME      = TEME
TIME_SYSTEM    = UTC
MEAN_ELEMENT_THEORY = SGP/SGP4

EPOCH          = 2025-12-30T06:29:11.498208
MEAN_MOTION    = 15.40752091
ECCENTRICITY   = .00008938
INCLINATION    = 43.0001
RA_OF_ASC_NODE = 91.2884
ARG_OF_PERICENTER = 281.8288
MEAN_ANOMALY   = 78.2468

EPHEMERIS_TYPE = 0
CLASSIFICATION_TYPE = U
NORAD_CAT_ID   = 66614
ELEMENT_SET_NO = 999
REV_AT_EPOCH   = 689
BSTAR          = .17240202E-2
MEAN_MOTION_DOT = .72526E-3
MEAN_MOTION_DDOT = 0

CCSDS_OMM_VERS = 2.0
CREATION_DATE  = 
ORIGINATOR     = 

OBJECT_NAME    = STARLINK-35988
OBJECT_ID      = 2025-270AD
CENTER_NAME    = EARTH
REF_FRAME      = TEME
TIME_SYSTEM    = UTC
MEAN_ELEMENT_THEORY = SGP/SGP4

EPOCH          = 2025-12-30T06:48:32.702976
MEAN_MOTION    = 15.40741302
ECCENTRICITY   = .00017196
INCLINATION    = 43.0034
RA_OF_ASC_NODE = 91.3908
ARG_OF_PERICENTER = 269.8458
MEAN_ANOMALY   = 90.2201

EPHEMERIS_TYPE = 0
CLASSIFICATION_TYPE = U
NORAD_CAT_ID   = 66615
ELEMENT_SET_NO = 999
REV_AT_EPOCH   = 689
BSTAR          = .16297734E-2
MEAN_MOTION_DOT = .68484E-3
MEAN_MOTION_DDOT = 0

CCSDS_OMM_VERS = 2.0
CREATION_DATE  = 
ORIGINATOR     = 

OBJECT_NAME    = STARLINK-35391
OBJECT_ID      = 2025-270AE
CENTER_NAME    = EARTH
REF_FRAME      = TEME
TIME_SYSTEM    = UTC
MEAN_ELEMENT_THEORY = SGP/SGP4

EPOCH          = 2025-12-29T22:35:59.106048
MEAN_MOTION    = 15.40799092
ECCENTRICITY   = .00007272
INCLINATION    = 43.0005
RA_OF_ASC_NODE = 93.1206
ARG_OF_PERICENTER = 274.9621
MEAN_ANOMALY   = 85.1153

EPHEMERIS_TYPE = 0
CLASSIFICATION_TYPE = U
NORAD_CAT_ID   = 66616
ELEMENT_SET_NO = 999
REV_AT_EPOCH   = 711
BSTAR          = .24973323E-2
MEAN_MOTION_DOT = .105822E-2
MEAN_MOTION_DDOT = 0

CCSDS_OMM_VERS = 2.0
CREATION_DATE  = 
ORIGINATOR     = 

OBJECT_NAME    = STARLINK-35940
OBJECT_ID      = 2025-271A
CENTER_NAME    = EARTH
REF_FRAME      = TEME
TIME_SYSTEM    = UTC
MEAN_ELEMENT_THEORY = SGP/SGP4

EPOCH          = 2025-12-29T17:13:32.413728
MEAN_MOTION    = 15.39618370
ECCENTRICITY   = .00010302
INCLINATION    = 53.1590
RA_OF_ASC_NODE = 107.0856
ARG_OF_PERICENTER = 109.3026
MEAN_ANOMALY   = 250.8090

EPHEMERIS_TYPE = 0
CLASSIFICATION_TYPE = U
NORAD_CAT_ID   = 66617
ELEMENT_SET_NO = 999
REV_AT_EPOCH   = 682
BSTAR          = .19502585E-2
MEAN_MOTION_DOT = .78411E-3
MEAN_MOTION_DDOT = 0

CCSDS_OMM_VERS = 2.0
CREATION_DATE  = 
ORIGINATOR     = 

OBJECT_NAME    = STARLINK-35970
OBJECT_ID      = 2025-271B
CENTER_NAME    = EARTH
REF_FRAME      = TEME
TIME_SYSTEM    = UTC
MEAN_ELEMENT_THEORY = SGP/SGP4

EPOCH          = 2025-12-30T07:20:53.952864
MEAN_MOTION    = 15.39671999
ECCENTRICITY   = .00020117
INCLINATION    = 53.1595
RA_OF_ASC_NODE = 103.6379
ARG_OF_PERICENTER = 92.3554
MEAN_ANOMALY   = 267.7681

EPHEMERIS_TYPE = 0
CLASSIFICATION_TYPE = U
NORAD_CAT_ID   = 66618
ELEMENT_SET_NO = 999
REV_AT_EPOCH   = 692
BSTAR          = .18196159E-2
MEAN_MOTION_DOT = .73212E-3
MEAN_MOTION_DDOT = 0

CCSDS_OMM_VERS = 2.0
CREATION_DATE  = 
ORIGINATOR     = 

OBJECT_NAME    = STARLINK-35951
OBJECT_ID      = 2025-271C
CENTER_NAME    = EARTH
REF_FRAME      = TEME
TIME_SYSTEM    = UTC
MEAN_ELEMENT_THEORY = SGP/SGP4

EPOCH          = 2025-12-30T00:00:44.868384
MEAN_MOTION    = 15.39646507
ECCENTRICITY   = .00013748
INCLINATION    = 53.1595
RA_OF_ASC_NODE = 105.2912
ARG_OF_PERICENTER = 91.0777
MEAN_ANOMALY   = 269.0385

EPHEMERIS_TYPE = 0
CLASSIFICATION_TYPE = U
NORAD_CAT_ID   = 66619
ELEMENT_SET_NO = 999
REV_AT_EPOCH   = 687
BSTAR          = .23005546E-2
MEAN_MOTION_DOT = .92829E-3
MEAN_MOTION_DDOT = 0

CCSDS_OMM_VERS = 2.0
CREATION_DATE  = 
ORIGINATOR     = 

OBJECT_NAME    = STARLINK-35936
OBJECT_ID      = 2025-271D
CENTER_NAME    = EARTH
REF_FRAME      = TEME
TIME_SYSTEM    = UTC
MEAN_ELEMENT_THEORY = SGP/SGP4

EPOCH          = 2025-12-30T00:14:07.359360
MEAN_MOTION    = 15.39657869
ECCENTRICITY   = .00012564
INCLINATION    = 53.1605
RA_OF_ASC_NODE = 105.3525
ARG_OF_PERICENTER = 57.7733
MEAN_ANOMALY   = 302.3394

EPHEMERIS_TYPE = 0
CLASSIFICATION_TYPE = U
NORAD_CAT_ID   = 66620
ELEMENT_SET_NO = 999
REV_AT_EPOCH   = 687
BSTAR          = .26487806E-2
MEAN_MOTION_DOT = .107184E-2
MEAN_MOTION_DDOT = 0

CCSDS_OMM_VERS = 2.0
CREATION_DATE  = 
ORIGINATOR     = 

OBJECT_NAME    = STARLINK-35847
OBJECT_ID      = 2025-271E
CENTER_NAME    = EARTH
REF_FRAME      = TEME
TIME_SYSTEM    = UTC
MEAN_ELEMENT_THEORY = SGP/SGP4

EPOCH          = 2025-12-30T07:14:13.024896
MEAN_MOTION    = 15.39649570
ECCENTRICITY   = .00016344
INCLINATION    = 53.1579
RA_OF_ASC_NODE = 103.6131
ARG_OF_PERICENTER = 75.3479
MEAN_ANOMALY   = 284.7707

EPHEMERIS_TYPE = 0
CLASSIFICATION_TYPE = U
NORAD_CAT_ID   = 66621
ELEMENT_SET_NO = 999
REV_AT_EPOCH   = 692
BSTAR          = .1433565E-2
MEAN_MOTION_DOT = .57431E-3
MEAN_MOTION_DDOT = 0

CCSDS_OMM_VERS = 2.0
CREATION_DATE  = 
ORIGINATOR     = 

OBJECT_NAME    = STARLINK-35950
OBJECT_ID      = 2025-271F
CENTER_NAME    = EARTH
REF_FRAME      = TEME
TIME_SYSTEM    = UTC
MEAN_ELEMENT_THEORY = SGP/SGP4

EPOCH          = 2025-12-30T06:48:05.087808
MEAN_MOTION    = 15.39651285
ECCENTRICITY   = .00015026
INCLINATION    = 53.1603
RA_OF_ASC_NODE = 104.2158
ARG_OF_PERICENTER = 89.0014
MEAN_ANOMALY   = 271.1163

EPHEMERIS_TYPE = 0
CLASSIFICATION_TYPE = U
NORAD_CAT_ID   = 66622
ELEMENT_SET_NO = 999
REV_AT_EPOCH   = 691
BSTAR          = .20749737E-2
MEAN_MOTION_DOT = .83599E-3
MEAN_MOTION_DDOT = 0

CCSDS_OMM_VERS = 2.0
CREATION_DATE  = 
ORIGINATOR     = 

OBJECT_NAME    = STARLINK-35920
OBJECT_ID      = 2025-271G
CENTER_NAME    = EARTH
REF_FRAME      = TEME
TIME_SYSTEM    = UTC
MEAN_ELEMENT_THEORY = SGP/SGP4

EPOCH          = 2025-12-30T07:01:27.424992
MEAN_MOTION    = 15.39657950
ECCENTRICITY   = .00015136
INCLINATION    = 53.1602
RA_OF_ASC_NODE = 104.2733
ARG_OF_PERICENTER = 82.0609
MEAN_ANOMALY   = 278.0567

EPHEMERIS_TYPE = 0
CLASSIFICATION_TYPE = U
NORAD_CAT_ID   = 66623
ELEMENT_SET_NO = 999
REV_AT_EPOCH   = 691
BSTAR          = .16341767E-2
MEAN_MOTION_DOT = .65613E-3
MEAN_MOTION_DDOT = 0

CCSDS_OMM_VERS = 2.0
CREATION_DATE  = 
ORIGINATOR     = 

OBJECT_NAME    = STARLINK-35927
OBJECT_ID      = 2025-271H
CENTER_NAME    = EARTH
REF_FRAME      = TEME
TIME_SYSTEM    = UTC
MEAN_ELEMENT_THEORY = SGP/SGP4

EPOCH          = 2025-12-30T06:07:57.762624
MEAN_MOTION    = 15.39664288
ECCENTRICITY   = .00018204
INCLINATION    = 53.1591
RA_OF_ASC_NODE = 104.0409
ARG_OF_PERICENTER = 89.8023
MEAN_ANOMALY   = 270.3190

EPHEMERIS_TYPE = 0
CLASSIFICATION_TYPE = U
NORAD_CAT_ID   = 66624
ELEMENT_SET_NO = 999
REV_AT_EPOCH   = 691
BSTAR          = .20128898E-2
MEAN_MOTION_DOT = .81094E-3
MEAN_MOTION_DDOT = 0

CCSDS_OMM_VERS = 2.0
CREATION_DATE  = 
ORIGINATOR     = 

OBJECT_NAME    = STARLINK-35929
OBJECT_ID      = 2025-271J
CENTER_NAME    = EARTH
REF_FRAME      = TEME
TIME_SYSTEM    = UTC
MEAN_ELEMENT_THEORY = SGP/SGP4

EPOCH          = 2025-12-30T00:20:48.633792
MEAN_MOTION    = 15.39635183
ECCENTRICITY   = .00007718
INCLINATION    = 53.1605
RA_OF_ASC_NODE = 105.3788
ARG_OF_PERICENTER = 84.7626
MEAN_ANOMALY   = 275.3467

EPHEMERIS_TYPE = 0
CLASSIFICATION_TYPE = U
NORAD_CAT_ID   = 66625
ELEMENT_SET_NO = 999
REV_AT_EPOCH   = 687
BSTAR          = .15798282E-2
MEAN_MOTION_DOT = .6335E-3
MEAN_MOTION_DDOT = 0

