STARLINK-36040          
1 66614U 25270AC  25364.27027197  .00072526  00000+0  17240-2 0  9991
2 66614  43.0001  91.2884 0000893 281.8288  78.2468 15.40752091  6894
STARLINK-35988          
1 66615U 25270AD  25364.28371184  .00068484  00000+0  16298-2 0  9991
2 66615  43.0034  91.3908 0001719 269.8458  90.2201 15.40741302  6894
STARLINK-35391          
1 66616U 25270AE  25363.94165632  .00105822  00000+0  24973-2 0  9990
2 66616  43.0005  93.1206 0000727 274.9621  85.1153 15.40799092  7115
STARLINK-35940          
1 66617U 25271A   25363.71773627  .00078411  00000+0  19503-2 0  9992
2 66617  53.1590 107.0856 0001030 109.3026 250.8090 15.39618370  6826
STARLINK-35970          
1 66618U 25271B   25364.30618001  .00073212  00000+0  18196-2 0  9994
2 66618  53.1595 103.6379 0002011  92.3554 267.7681 15.39671999  6921
STARLINK-35951          
1 66619U 25271C   25364.00051931  .00092829  00000+0  23006-2 0  9996
2 66619  53.1595 105.2912 0001374  91.0777 269.0385 15.39646507  6874
STARLINK-35936          
1 66620U 25271D   25364.00980740  .00107184  00000+0  26488-2 0  9995
2 66620  53.1605 105.3525 0001256  57.7733 302.3394 15.39657869  6873
STARLINK-35847          
1 66621U 25271E   25364.30153964  .00057431  00000+0  14336-2 0  9997
2 66621  53.1579 103.6131 0001634  75.3479 284.7707 15.39649570  6928
STARLINK-35950          
1 66622U 25271F   25364.28339222  .00083599  00000+0  20750-2 0  9999
2 66622  53.1603 104.2158 0001502  89.0014 271.1163 15.39651285  6915
STARLINK-35920          
1 66623U 25271G   25364.29267853  .00065613  00000+0  16342-2 0  9990
2 66623  53.1602 104.2733 0001513  82.0609 278.0567 15.39657950  6918
STARLINK-35927          
1 66624U 25271H   25364.25552966  .00081094  00000+0  20129-2 0  9998
2 66624  53.1591 104.0409 0001820  89.8023 270.3190 15.39664288  6919
STARLINK-35929          
1 66625U 25271J   25364.01445178  .00063350  00000+0  15798-2 0  9990
2 66625  53.1605 105.3788 0000771  84.7626 275.3467 15.39635183  6876
